COSMOS 2251 DEB         
1 33889U 93036CS  17345.89608654  .00006355  00000-0  43839-3 0  9997
2 33889  74.1043 265.3167 0039741 284.9472  74.7320 15.05358365473459
